{
  "type": "FeatureCollection",
  "features": [
    {
      "type": "Feature",
      "properties": { "name": "Perlis", "forest_pct": 34 },
      "geometry": { "type": "Polygon", "coordinates": [[[100.198,6.700],[100.434,6.700],[100.434,6.422],[100.198,6.422],[100.198,6.700]]] }
    },
    {
      "type": "Feature",
      "properties": { "name": "Kedah", "forest_pct": 38 },
      "geometry": { "type": "Polygon", "coordinates": [[[100.034,6.422],[100.700,6.422],[100.700,5.500],[100.200,5.200],[100.034,5.500],[100.034,6.422]]] }
    },
    {
      "type": "Feature",
      "properties": { "name": "Pulau Pinang", "forest_pct": 16 },
      "geometry": { "type": "Polygon", "coordinates": [[[100.170,5.530],[100.500,5.530],[100.500,5.200],[100.170,5.200],[100.170,5.530]]] }
    },
    {
      "type": "Feature",
      "properties": { "name": "Perak", "forest_pct": 55 },
      "geometry": { "type": "Polygon", "coordinates": [[[100.200,5.200],[101.500,5.200],[101.800,4.500],[101.500,3.700],[100.600,3.800],[100.200,4.200],[100.200,5.200]]] }
    },
    {
      "type": "Feature",
      "properties": { "name": "Kelantan", "forest_pct": 73 },
      "geometry": { "type": "Polygon", "coordinates": [[[101.500,5.200],[102.600,5.800],[103.000,5.500],[102.800,4.800],[101.800,4.500],[101.500,5.200]]] }
    },
    {
      "type": "Feature",
      "properties": { "name": "Terengganu", "forest_pct": 62 },
      "geometry": { "type": "Polygon", "coordinates": [[[102.800,4.800],[103.200,4.200],[103.500,3.500],[103.000,3.000],[102.500,3.500],[102.800,4.800]]] }
    },
    {
      "type": "Feature",
      "properties": { "name": "Pahang", "forest_pct": 69 },
      "geometry": { "type": "Polygon", "coordinates": [[[101.800,4.500],[102.800,4.800],[102.500,3.500],[103.000,3.000],[102.200,2.500],[101.500,2.800],[101.000,3.500],[101.500,3.700],[101.800,4.500]]] }
    },
    {
      "type": "Feature",
      "properties": { "name": "Selangor", "forest_pct": 35 },
      "geometry": { "type": "Polygon", "coordinates": [[[100.600,3.800],[101.500,3.700],[101.000,3.200],[101.000,2.900],[100.500,2.900],[100.200,3.200],[100.600,3.800]]] }
    },
    {
      "type": "Feature",
      "properties": { "name": "WP Kuala Lumpur", "forest_pct": 5 },
      "geometry": { "type": "Polygon", "coordinates": [[[101.580,3.240],[101.780,3.240],[101.780,3.050],[101.580,3.050],[101.580,3.240]]] }
    },
    {
      "type": "Feature",
      "properties": { "name": "Negeri Sembilan", "forest_pct": 48 },
      "geometry": { "type": "Polygon", "coordinates": [[[101.500,3.200],[102.200,3.000],[102.000,2.500],[101.500,2.500],[101.000,2.800],[101.500,3.200]]] }
    },
    {
      "type": "Feature",
      "properties": { "name": "Melaka", "forest_pct": 20 },
      "geometry": { "type": "Polygon", "coordinates": [[[102.000,2.500],[102.400,2.400],[102.300,2.100],[101.800,2.100],[102.000,2.500]]] }
    },
    {
      "type": "Feature",
      "properties": { "name": "Johor", "forest_pct": 42 },
      "geometry": { "type": "Polygon", "coordinates": [[[103.500,2.000],[104.200,1.800],[104.400,1.500],[103.800,1.300],[103.000,1.400],[102.000,1.700],[102.000,2.100],[102.300,2.100],[102.400,2.400],[102.200,2.500],[102.500,3.000],[103.000,3.000],[103.500,2.000]]] }
    },
    {
      "type": "Feature",
      "properties": { "name": "Sabah", "forest_pct": 54 },
      "geometry": { "type": "Polygon", "coordinates": [[[115.800,7.400],[117.600,7.400],[119.200,6.200],[118.500,4.800],[117.500,4.200],[116.000,4.500],[115.000,5.200],[114.800,6.000],[115.800,7.400]]] }
    },
    {
      "type": "Feature",
      "properties": { "name": "Sarawak", "forest_pct": 52 },
      "geometry": { "type": "Polygon", "coordinates": [[[109.600,1.700],[110.500,2.000],[111.500,2.500],[112.000,3.500],[113.000,4.200],[114.000,4.600],[115.000,5.200],[116.000,4.500],[116.000,3.500],[115.000,3.000],[114.000,2.000],[113.000,1.500],[112.000,1.500],[111.000,1.700],[110.000,1.500],[109.600,1.700]]] }
    }
  ]
}
